ONEWEB-0126             
1 47272U 20100Q   24107.62956838  .00000334  00000+0  89222-3 0  9991
2 47272  87.8961 148.2242 0002173  99.5141 260.6233 13.12443842160874
ONEWEB-0127             
1 47273U 20100R   24108.12430399 -.00000137  00000+0 -41697-3 0  9994
2 47273  87.8966 148.1518 0002170  98.5613 261.5761 13.12440429160969
ONEWEB-0129             
1 47275U 20100T   24108.12589710 -.00000390  00000+0 -11193-2 0  9996
2 47275  87.8964 148.1223 0003652 105.5689 254.5843 13.12441665160911
ONEWEB-0130             
1 47276U 20100U   24107.54457657 -.00000236  00000+0 -69169-3 0  9992
2 47276  87.8962 148.2465 0002036 101.9988 258.1369 13.12443673160808
ONEWEB-0131             
1 47277U 20100V   24107.61765393 -.00000218  00000+0 -64059-3 0  9993
2 47277  87.8967 148.2449 0001950  99.6858 260.4491 13.12443348160855
ONEWEB-0132             
1 47278U 20100W   24108.17991660  .00000499  00000+0  13521-2 0  9990
2 47278  87.8966 148.1352 0001831  94.5150 265.6187 13.12441742160826
ONEWEB-0133             
1 47279U 20100X   24108.11955650  .00000065  00000+0  14515-3 0  9998
2 47279  87.8959 148.1492 0001910  98.4231 261.7114 13.12441323160973
